[{"OBJECT_NAME":"STARLINK-30713","OBJECT_ID":"2023-148T","EPOCH":"2026-03-09T03:51:21.207168","MEAN_MOTION":15.30192059,"ECCENTRICITY":0.00012361,"INCLINATION":53.1601,"RA_OF_ASC_NODE":26.5766,"ARG_OF_PERICENTER":69.2154,"MEAN_ANOMALY":290.898,"EPHEMERIS_TYPE":0,"CLASSIFICATION_TYPE":"U","NORAD_CAT_ID":57952,"ELEMENT_SET_NO":999,"REV_AT_EPOCH":13834,"BSTAR":0.00018932402,"MEAN_MOTION_DOT":5.251e-5,"MEAN_MOTION_DDOT":0},{"OBJECT_NAME":"NOAA 17 DEB","OBJECT_ID":"2002-032AF","EPOCH":"2026-03-09T00:24:06.552000","MEAN_MOTION":15.25501717,"ECCENTRICITY":0.00030847,"INCLINATION":98.6472,"RA_OF_ASC_NODE":92.5947,"ARG_OF_PERICENTER":165.9893,"MEAN_ANOMALY":194.1428,"EPHEMERIS_TYPE":0,"CLASSIFICATION_TYPE":"U","NORAD_CAT_ID":48614,"ELEMENT_SET_NO":999,"REV_AT_EPOCH":26420,"BSTAR":0.01090047,"MEAN_MOTION_DOT":0.00286783,"MEAN_MOTION_DDOT":0}]
